{
  "norad_id": 68581,
  "name": "KUIPER-00234",
  "history": [
    {
      "epoch": "2026-04-09T12:00:01.645056Z",
      "apogee_km": 452.7770306382108,
      "perigee_km": 449.615049440672,
      "latitude_deg": -2.5059684765281176e-05,
      "longitude_deg": 131.30970132870726,
      "height_km": 451.9297301269316,
      "semi_major_axis_km": 6829.333040039442,
      "eccentricity": 0.0002315,
      "inclination_deg": 51.8748,
      "raan_deg": 149.0639,
      "arg_perigee_deg": 89.0364,
      "mean_anomaly_deg": 271.0888,
      "mean_motion_rev_day": 15.38279753
    }
  ]
}